ORBCOMM-X               
1 21576U 91050C   25303.63118428  .00000471  00000+0  15236-3 0  9993
2 21576  98.3285   7.3737 0004604 127.0583 233.1030 14.43380807801655
ORBCOMM FM01            
1 23545U 95017A   25303.79619388  .00011698  00000+0  11560-2 0  9994
2 23545  69.9609  95.5518 0001159 154.7279 205.3934 14.92091800632724
ORBCOMM FM02            
1 23546U 95017B   25303.51036062  .00014912  00000+0  14236-2 0  9992
2 23546  69.9625 115.1313 0002648 134.8077 225.3295 14.93381833632343
ORBCOMM FM08            
1 25112U 97084A   25303.79958592  .00002718  00000+0  78991-3 0  9990
2 25112  45.0127  76.6371 0007569 212.5085 147.5301 14.46341847461006
ORBCOMM FM10            
1 25113U 97084B   25303.66318890  .00002586  00000+0  75715-3 0  9992
2 25113  45.0140  79.9176 0006008 183.1216 176.9599 14.46113899636123
ORBCOMM FM11            
1 25114U 97084C   25303.76060236  .00002649  00000+0  77867-3 0  9992
2 25114  45.0124  80.3322 0006821 184.2200 175.8595 14.45849504461097
ORBCOMM FM12            
1 25115U 97084D   25303.65213839  .00002372  00000+0  70144-3 0  9994
2 25115  45.0133  80.5898 0005906 181.7788 178.3044 14.45870133460878
ORBCOMM FM09            
1 25116U 97084E   25303.69679364  .00002419  00000+0  71641-3 0  9993
2 25116  45.0134  81.4510 0006979 172.2235 187.8726 14.45727732461086
